OBJECT B                
1 51825U 22019B   25098.91829071  .00033315  00000+0  90782-3 0  9999
2 51825  97.3895 175.0491 0009654 265.5366  94.4775 15.37363730172417
